SL-4 R/B                
1 39679U 14021B   25340.63237659  .00020002  00000+0  47337-3 0  9997
2 39679  51.6086  70.2716 0102313 124.1129 236.9612 15.36449968641954
ALOS-2                  
1 39766U 14029A   25340.92657664  .00003165  00000+0  43074-3 0  9991
2 39766  97.9234  75.8559 0001434 105.3258 254.8112 14.79455384623152
YAOGAN-29               
1 41038U 15069A   25340.94907275  .00000887  00000+0  11616-3 0  9994
2 41038  98.0223   4.1020 0000477 356.0053   4.1156 14.82872804542135
ASTRO-H (HITOMI)        
1 41337U 16012A   25340.87052655  .00005597  00000+0  33667-3 0  9993
2 41337  30.9988 235.2099 0009468 119.4443 240.7141 15.09297638538195
HXMT (HUIYAN)           
1 42758U 17034A   25340.92770590  .00005792  00000+0  30283-3 0  9995
2 42758  43.0121 171.8795 0032309   6.0769 354.0465 15.16176088468459
CZ-2C R/B               
1 43521U 18054D   25340.96069185  .00121145  00000+0  85039-3 0  9992
2 43521  35.1331 220.0484 0016231  82.7643 277.4934 15.72636682414142
SAOCOM 1A               
1 43641U 18076A   25340.93349567  .00000917  00000+0  12175-3 0  9995
2 43641  97.8854 165.4405 0001487  87.7956 272.3427 14.82147465387623
H-2A R/B                
1 43682U 18084L   25340.89918656  .00026684  00000+0  72744-3 0  9992
2 43682  98.8774 173.7690 0027809 346.6050  13.4448 15.37064573391504
SAOCOM 1B               
1 46265U 20059A   25340.96475491  .00000541  00000+0  74493-4 0  9998
2 46265  97.8849 164.5721 0001256  87.7256 272.4101 14.82149443285018
CSS (TIANHE)            
1 48274U 21035A   25340.88512792  .00027906  00000+0  35334-3 0  9996
2 48274  41.4683  52.2413 0009453 344.5349  15.5199 15.58811356263119
COSMOS 2550             
1 48865U 21056A   25340.92257529  .00004878  00000+0  15396-3 0  9993
2 48865  67.1452 321.5290 0008413 269.8010  90.2181 15.33836622249232
CZ-2C R/B               
1 52794U 22058K   25340.54692097  .00039941  00000+0  72204-3 0  9993
2 52794  50.1912  75.1214 0046031 172.9477 187.2148 15.48070272195673
