CCSDS_OMM_VERS = 2.0
CREATION_DATE  = 
ORIGINATOR     = 

OBJECT_NAME    = SL-4 R/B
OBJECT_ID      = 2014-021B
CENTER_NAME    = EARTH
REF_FRAME      = TEME
TIME_SYSTEM    = UTC
MEAN_ELEMENT_THEORY = SGP/SGP4

EPOCH          = 2025-12-06T15:10:37.337376
MEAN_MOTION    = 15.36449968
ECCENTRICITY   = .0102313
INCLINATION    = 51.6086
RA_OF_ASC_NODE = 70.2716
ARG_OF_PERICENTER = 124.1129
MEAN_ANOMALY   = 236.9612

EPHEMERIS_TYPE = 0
CLASSIFICATION_TYPE = U
NORAD_CAT_ID   = 39679
ELEMENT_SET_NO = 999
REV_AT_EPOCH   = 64195
BSTAR          = .47337E-3
MEAN_MOTION_DOT = .20002E-3
MEAN_MOTION_DDOT = 0

CCSDS_OMM_VERS = 2.0
CREATION_DATE  = 
ORIGINATOR     = 

OBJECT_NAME    = ALOS-2
OBJECT_ID      = 2014-029A
CENTER_NAME    = EARTH
REF_FRAME      = TEME
TIME_SYSTEM    = UTC
MEAN_ELEMENT_THEORY = SGP/SGP4

EPOCH          = 2025-12-06T22:14:16.221696
MEAN_MOTION    = 14.79455384
ECCENTRICITY   = .00014349
INCLINATION    = 97.9234
RA_OF_ASC_NODE = 75.8559
ARG_OF_PERICENTER = 105.3258
MEAN_ANOMALY   = 254.8112

EPHEMERIS_TYPE = 0
CLASSIFICATION_TYPE = U
NORAD_CAT_ID   = 39766
ELEMENT_SET_NO = 999
REV_AT_EPOCH   = 62315
BSTAR          = .430739E-3
MEAN_MOTION_DOT = .3165E-4
MEAN_MOTION_DDOT = 0

CCSDS_OMM_VERS = 2.0
CREATION_DATE  = 
ORIGINATOR     = 

OBJECT_NAME    = YAOGAN-29
OBJECT_ID      = 2015-069A
CENTER_NAME    = EARTH
REF_FRAME      = TEME
TIME_SYSTEM    = UTC
MEAN_ELEMENT_THEORY = SGP/SGP4

EPOCH          = 2025-12-06T22:46:39.885600
MEAN_MOTION    = 14.82872804
ECCENTRICITY   = .00004771
INCLINATION    = 98.0223
RA_OF_ASC_NODE = 4.1020
ARG_OF_PERICENTER = 356.0053
MEAN_ANOMALY   = 4.1156

EPHEMERIS_TYPE = 0
CLASSIFICATION_TYPE = U
NORAD_CAT_ID   = 41038
ELEMENT_SET_NO = 999
REV_AT_EPOCH   = 54213
BSTAR          = .11616333E-3
MEAN_MOTION_DOT = .887E-5
MEAN_MOTION_DDOT = 0

CCSDS_OMM_VERS = 2.0
CREATION_DATE  = 
ORIGINATOR     = 

OBJECT_NAME    = ASTRO-H (HITOMI)
OBJECT_ID      = 2016-012A
CENTER_NAME    = EARTH
REF_FRAME      = TEME
TIME_SYSTEM    = UTC
MEAN_ELEMENT_THEORY = SGP/SGP4

EPOCH          = 2025-12-06T20:53:33.493920
MEAN_MOTION    = 15.09297638
ECCENTRICITY   = .00094681
INCLINATION    = 30.9988
RA_OF_ASC_NODE = 235.2099
ARG_OF_PERICENTER = 119.4443
MEAN_ANOMALY   = 240.7141

EPHEMERIS_TYPE = 0
CLASSIFICATION_TYPE = U
NORAD_CAT_ID   = 41337
ELEMENT_SET_NO = 999
REV_AT_EPOCH   = 53819
BSTAR          = .33666869E-3
MEAN_MOTION_DOT = .5597E-4
MEAN_MOTION_DDOT = 0

CCSDS_OMM_VERS = 2.0
CREATION_DATE  = 
ORIGINATOR     = 

OBJECT_NAME    = HXMT (HUIYAN)
OBJECT_ID      = 2017-034A
CENTER_NAME    = EARTH
REF_FRAME      = TEME
TIME_SYSTEM    = UTC
MEAN_ELEMENT_THEORY = SGP/SGP4

EPOCH          = 2025-12-06T22:15:53.789760
MEAN_MOTION    = 15.16176088
ECCENTRICITY   = .00323098
INCLINATION    = 43.0121
RA_OF_ASC_NODE = 171.8795
ARG_OF_PERICENTER = 6.0769
MEAN_ANOMALY   = 354.0465

EPHEMERIS_TYPE = 0
CLASSIFICATION_TYPE = U
NORAD_CAT_ID   = 42758
ELEMENT_SET_NO = 999
REV_AT_EPOCH   = 46845
BSTAR          = .30283123E-3
MEAN_MOTION_DOT = .5792E-4
MEAN_MOTION_DDOT = 0

CCSDS_OMM_VERS = 2.0
CREATION_DATE  = 
ORIGINATOR     = 

OBJECT_NAME    = CZ-2C R/B
OBJECT_ID      = 2018-054D
CENTER_NAME    = EARTH
REF_FRAME      = TEME
TIME_SYSTEM    = UTC
MEAN_ELEMENT_THEORY = SGP/SGP4

EPOCH          = 2025-12-06T23:03:23.775840
MEAN_MOTION    = 15.72636682
ECCENTRICITY   = .00162317
INCLINATION    = 35.1331
RA_OF_ASC_NODE = 220.0484
ARG_OF_PERICENTER = 82.7643
MEAN_ANOMALY   = 277.4934

EPHEMERIS_TYPE = 0
CLASSIFICATION_TYPE = U
NORAD_CAT_ID   = 43521
ELEMENT_SET_NO = 999
REV_AT_EPOCH   = 41414
BSTAR          = .85038954E-3
MEAN_MOTION_DOT = .121145E-2
MEAN_MOTION_DDOT = 0

CCSDS_OMM_VERS = 2.0
CREATION_DATE  = 
ORIGINATOR     = 

OBJECT_NAME    = SAOCOM 1A
OBJECT_ID      = 2018-076A
CENTER_NAME    = EARTH
REF_FRAME      = TEME
TIME_SYSTEM    = UTC
MEAN_ELEMENT_THEORY = SGP/SGP4

EPOCH          = 2025-12-06T22:24:14.025888
MEAN_MOTION    = 14.82147465
ECCENTRICITY   = .00014872
INCLINATION    = 97.8854
RA_OF_ASC_NODE = 165.4405
ARG_OF_PERICENTER = 87.7956
MEAN_ANOMALY   = 272.3427

EPHEMERIS_TYPE = 0
CLASSIFICATION_TYPE = U
NORAD_CAT_ID   = 43641
ELEMENT_SET_NO = 999
REV_AT_EPOCH   = 38762
BSTAR          = .12174559E-3
MEAN_MOTION_DOT = .917E-5
MEAN_MOTION_DDOT = 0

CCSDS_OMM_VERS = 2.0
CREATION_DATE  = 
ORIGINATOR     = 

OBJECT_NAME    = H-2A R/B
OBJECT_ID      = 2018-084L
CENTER_NAME    = EARTH
REF_FRAME      = TEME
TIME_SYSTEM    = UTC
MEAN_ELEMENT_THEORY = SGP/SGP4

EPOCH          = 2025-12-06T21:34:49.718784
MEAN_MOTION    = 15.37064573
ECCENTRICITY   = .00278098
INCLINATION    = 98.8774
RA_OF_ASC_NODE = 173.7690
ARG_OF_PERICENTER = 346.6050
MEAN_ANOMALY   = 13.4448

EPHEMERIS_TYPE = 0
CLASSIFICATION_TYPE = U
NORAD_CAT_ID   = 43682
ELEMENT_SET_NO = 999
REV_AT_EPOCH   = 39150
BSTAR          = .7274399E-3
MEAN_MOTION_DOT = .26684E-3
MEAN_MOTION_DDOT = 0

CCSDS_OMM_VERS = 2.0
CREATION_DATE  = 
ORIGINATOR     = 

OBJECT_NAME    = SAOCOM 1B
OBJECT_ID      = 2020-059A
CENTER_NAME    = EARTH
REF_FRAME      = TEME
TIME_SYSTEM    = UTC
MEAN_ELEMENT_THEORY = SGP/SGP4

EPOCH          = 2025-12-06T23:09:14.824224
MEAN_MOTION    = 14.82149443
ECCENTRICITY   = .00012567
INCLINATION    = 97.8849
RA_OF_ASC_NODE = 164.5721
ARG_OF_PERICENTER = 87.7256
MEAN_ANOMALY   = 272.4101

EPHEMERIS_TYPE = 0
CLASSIFICATION_TYPE = U
NORAD_CAT_ID   = 46265
ELEMENT_SET_NO = 999
REV_AT_EPOCH   = 28501
BSTAR          = .74492614E-4
MEAN_MOTION_DOT = .541E-5
MEAN_MOTION_DDOT = 0

CCSDS_OMM_VERS = 2.0
CREATION_DATE  = 
ORIGINATOR     = 

OBJECT_NAME    = CSS (TIANHE)
OBJECT_ID      = 2021-035A
CENTER_NAME    = EARTH
REF_FRAME      = TEME
TIME_SYSTEM    = UTC
MEAN_ELEMENT_THEORY = SGP/SGP4

EPOCH          = 2025-12-06T21:14:35.052288
MEAN_MOTION    = 15.58811356
ECCENTRICITY   = .00094534
INCLINATION    = 41.4683
RA_OF_ASC_NODE = 52.2413
ARG_OF_PERICENTER = 344.5349
MEAN_ANOMALY   = 15.5199

EPHEMERIS_TYPE = 0
CLASSIFICATION_TYPE = U
NORAD_CAT_ID   = 48274
ELEMENT_SET_NO = 999
REV_AT_EPOCH   = 26311
BSTAR          = .35334049E-3
MEAN_MOTION_DOT = .27906E-3
MEAN_MOTION_DDOT = 0

CCSDS_OMM_VERS = 2.0
CREATION_DATE  = 
ORIGINATOR     = 

OBJECT_NAME    = COSMOS 2550
OBJECT_ID      = 2021-056A
CENTER_NAME    = EARTH
REF_FRAME      = TEME
TIME_SYSTEM    = UTC
MEAN_ELEMENT_THEORY = SGP/SGP4

EPOCH          = 2025-12-06T22:08:30.505056
MEAN_MOTION    = 15.33836622
ECCENTRICITY   = .00084134
INCLINATION    = 67.1452
RA_OF_ASC_NODE = 321.5290
ARG_OF_PERICENTER = 269.8010
MEAN_ANOMALY   = 90.2181

EPHEMERIS_TYPE = 0
CLASSIFICATION_TYPE = U
NORAD_CAT_ID   = 48865
ELEMENT_SET_NO = 999
REV_AT_EPOCH   = 24923
BSTAR          = .15396358E-3
MEAN_MOTION_DOT = .4878E-4
MEAN_MOTION_DDOT = 0

CCSDS_OMM_VERS = 2.0
CREATION_DATE  = 
ORIGINATOR     = 

OBJECT_NAME    = CZ-2C R/B
OBJECT_ID      = 2022-058K
CENTER_NAME    = EARTH
REF_FRAME      = TEME
TIME_SYSTEM    = UTC
MEAN_ELEMENT_THEORY = SGP/SGP4

EPOCH          = 2025-12-06T13:07:33.971808
MEAN_MOTION    = 15.48070272
ECCENTRICITY   = .00460312
INCLINATION    = 50.1912
RA_OF_ASC_NODE = 75.1214
ARG_OF_PERICENTER = 172.9477
MEAN_ANOMALY   = 187.2148

EPHEMERIS_TYPE = 0
CLASSIFICATION_TYPE = U
NORAD_CAT_ID   = 52794
ELEMENT_SET_NO = 999
REV_AT_EPOCH   = 19567
BSTAR          = .72203675E-3
MEAN_MOTION_DOT = .39941E-3
MEAN_MOTION_DDOT = 0

